{"fetched_at":"2026-07-19T17:31:28.136Z","source":"https://celestrak.org/NORAD/elements/gp.php?NAME=EROS&FORMAT=JSON","constellation":"eros","records":[{"OBJECT_NAME":"EROS C3","OBJECT_ID":"2022-179A","EPOCH":"2026-07-19T03:30:22.123296","CLASSIFICATION_TYPE":"U","MEAN_MOTION":15.11054943,"ECCENTRICITY":0.00081001,"INCLINATION":139.3348,"RA_OF_ASC_NODE":187.4648,"ARG_OF_PERICENTER":207.2657,"MEAN_ANOMALY":152.7725,"EPHEMERIS_TYPE":0,"NORAD_CAT_ID":54880,"ELEMENT_SET_NO":999,"REV_AT_EPOCH":19716,"BSTAR":0.00015626987,"MEAN_MOTION_DOT":0.00002904,"MEAN_MOTION_DDOT":0}]}
