EROS C3                 
1 54880U 22179A   26200.14608939  .00002904  00000+0  15627-3 0  9994
2 54880 139.3348 187.4648 0008100 207.2657 152.7725 15.11054943197160
